{"type": "FeatureCollection", "features": [ {"type": "Feature", "properties": {"norad_id": 34141, "name": "COSMOS 2251 DEB", "group": "cosmos-2251-debris", "lat": -53.045702226559655, "lon": -120.5334136973159, "alt_km": 747.2115042314099, "timestamp": "2025-12-08T08:59:01.160291+00:00", "meta": {"OBJECT_NAME": "COSMOS 2251 DEB", "OBJECT_ID": "1993-036LN", "EPOCH": "2025-12-07T03:52:37.828416", "MEAN_MOTION": 14.49147419, "ECCENTRICITY": 0.00478822, "INCLINATION": 74.0114, "RA_OF_ASC_NODE": 39.3404, "ARG_OF_PERICENTER": 127.4222, "MEAN_ANOMALY": 263.8123, "EPHEMERIS_TYPE": 0, "CLASSIFICATION_TYPE": "U", "NORAD_CAT_ID": 34141, "ELEMENT_SET_NO": 999, "REV_AT_EPOCH": 87613, "BSTAR": 0.0025205061, "MEAN_MOTION_DOT": 9.715e-05, "MEAN_MOTION_DDOT": 0}, "tle": {"line1": "1 34141U 93036LN  25341.16154894  .00009715  00000+0  25205-2 0  9994", "line2": "2 34141  74.0114  39.3404 0047882 127.4222 263.8123 14.49147419876138"}}, "geometry": {"type": "Point", "coordinates": [-120.5334136973159, -53.045702226559655]}}, {"type": "Feature", "properties": {"norad_id": 34270, "name": "COSMOS 2251 DEB", "group": "cosmos-2251-debris", "lat": -54.87370404765972, "lon": -69.0120650187623, "alt_km": 716.2845225654319, "timestamp": "2025-12-08T08:59:01.160302+00:00", "meta": {"OBJECT_NAME": "COSMOS 2251 DEB", "OBJECT_ID": "1993-036LQ", "EPOCH": "2025-12-07T23:25:06.315456", "MEAN_MOTION": 14.65108837, "ECCENTRICITY": 0.00477777, "INCLINATION": 74.0117, "RA_OF_ASC_NODE": 315.8069, "ARG_OF_PERICENTER": 109.9826, "MEAN_ANOMALY": 250.6497, "EPHEMERIS_TYPE": 0, "CLASSIFICATION_TYPE": "U", "NORAD_CAT_ID": 34270, "ELEMENT_SET_NO": 999, "REV_AT_EPOCH": 89026, "BSTAR": 0.00057581397, "MEAN_MOTION_DOT": 3.115e-05, "MEAN_MOTION_DDOT": 0}, "tle": {"line1": "1 34270U 93036LQ  25341.97576754  .00003115  00000+0  57581-3 0  9990", "line2": "2 34270  74.0117 315.8069 0047777 109.9826 250.6497 14.65108837890268"}}, "geometry": {"type": "Point", "coordinates": [-69.0120650187623, -54.87370404765972]}}, {"type": "Feature", "properties": {"norad_id": 34271, "name": "COSMOS 2251 DEB", "group": "cosmos-2251-debris", "lat": 18.502936027250918, "lon": 22.306526681258227, "alt_km": 661.8011295606348, "timestamp": "2025-12-08T08:59:01.160312+00:00", "meta": {"OBJECT_NAME": "COSMOS 2251 DEB", "OBJECT_ID": "1993-036LR", "EPOCH": "2025-12-07T10:12:01.345248", "MEAN_MOTION": 14.70585946, "ECCENTRICITY": 0.00193066, "INCLINATION": 74.021, "RA_OF_ASC_NODE": 209.6523, "ARG_OF_PERICENTER": 264.462, "MEAN_ANOMALY": 272.6832, "EPHEMERIS_TYPE": 0, "CLASSIFICATION_TYPE": "U", "NORAD_CAT_ID": 34271, "ELEMENT_SET_NO": 999, "REV_AT_EPOCH": 88156, "BSTAR": 0.0028363068, "MEAN_MOTION_DOT": 0.00017301, "MEAN_MOTION_DDOT": 0}, "tle": {"line1": "1 34271U 93036LR  25341.42501557  .00017301  00000+0  28363-2 0  9997", "line2": "2 34271  74.0210 209.6523 0019306 264.4620 272.6832 14.70585946881560"}}, "geometry": {"type": "Point", "coordinates": [22.306526681258227, 18.502936027250918]}}, {"type": "Feature", "properties": {"norad_id": 34273, "name": "COSMOS 2251 DEB", "group": "cosmos-2251-debris", "lat": -29.267012192223376, "lon": 86.5431168088269, "alt_km": 698.1388199069124, "timestamp": "2025-12-08T08:59:01.160323+00:00", "meta": {"OBJECT_NAME": "COSMOS 2251 DEB", "OBJECT_ID": "1993-036LT", "EPOCH": "2025-12-07T19:03:19.736352", "MEAN_MOTION": 14.61151949, "ECCENTRICITY": 0.00143205, "INCLINATION": 74.0364, "RA_OF_ASC_NODE": 96.8832, "ARG_OF_PERICENTER": 222.5253, "MEAN_ANOMALY": 295.4282, "EPHEMERIS_TYPE": 0, "CLASSIFICATION_TYPE": "U", "NORAD_CAT_ID": 34273, "ELEMENT_SET_NO": 999, "REV_AT_EPOCH": 88549, "BSTAR": 0.0018545581, "MEAN_MOTION_DOT": 9.123e-05, "MEAN_MOTION_DDOT": 0}, "tle": {"line1": "1 34273U 93036LT  25341.79397843  .00009123  00000+0  18546-2 0  9995", "line2": "2 34273  74.0364  96.8832 0014320 222.5253 295.4282 14.61151949885499"}}, "geometry": {"type": "Point", "coordinates": [86.5431168088269, -29.267012192223376]}}, {"type": "Feature", "properties": {"norad_id": 34274, "name": "COSMOS 2251 DEB", "group": "cosmos-2251-debris", "lat": -3.9237541764614554, "lon": 75.85155161858447, "alt_km": 691.0665091599958, "timestamp": "2025-12-08T08:59:01.160333+00:00", "meta": {"OBJECT_NAME": "COSMOS 2251 DEB", "OBJECT_ID": "1993-036LU", "EPOCH": "2025-12-07T13:25:37.306848", "MEAN_MOTION": 14.6468292, "ECCENTRICITY": 0.00223175, "INCLINATION": 74.0053, "RA_OF_ASC_NODE": 78.5477, "ARG_OF_PERICENTER": 228.7901, "MEAN_ANOMALY": 152.1504, "EPHEMERIS_TYPE": 0, "CLASSIFICATION_TYPE": "U", "NORAD_CAT_ID": 34274, "ELEMENT_SET_NO": 999, "REV_AT_EPOCH": 88600, "BSTAR": 0.0021395305, "MEAN_MOTION_DOT": 0.00011414, "MEAN_MOTION_DDOT": 0}, "tle": {"line1": "1 34274U 93036LU  25341.55945957  .00011414  00000+0  21395-2 0  9997", "line2": "2 34274  74.0053  78.5477 0022317 228.7901 152.1504 14.64682920886005"}}, "geometry": {"type": "Point", "coordinates": [75.85155161858447, -3.9237541764614554]}}, {"type": "Feature", "properties": {"norad_id": 34276, "name": "COSMOS 2251 DEB", "group": "cosmos-2251-debris", "lat": 49.03172895492629, "lon": 112.88518592206722, "alt_km": 713.3811909661636, "timestamp": "2025-12-08T08:59:01.160344+00:00", "meta": {"OBJECT_NAME": "COSMOS 2251 DEB", "OBJECT_ID": "1993-036LW", "EPOCH": "2025-12-07T18:36:50.151744", "MEAN_MOTION": 14.57173722, "ECCENTRICITY": 0.00226752, "INCLINATION": 74.0239, "RA_OF_ASC_NODE": 94.7584, "ARG_OF_PERICENTER": 241.6971, "MEAN_ANOMALY": 270.4928, "EPHEMERIS_TYPE": 0, "CLASSIFICATION_TYPE": "U", "NORAD_CAT_ID": 34276, "ELEMENT_SET_NO": 999, "REV_AT_EPOCH": 88520, "BSTAR": 0.0014924129, "MEAN_MOTION_DOT": 6.736e-05, "MEAN_MOTION_DDOT": 0}, "tle": {"line1": "1 34276U 93036LW  25341.77558046  .00006736  00000+0  14924-2 0  9993", "line2": "2 34276  74.0239  94.7584 0022675 241.6971 270.4928 14.57173722885202"}}, "geometry": {"type": "Point", "coordinates": [112.88518592206722, 49.03172895492629]}}, {"type": "Feature", "properties": {"norad_id": 34297, "name": "COSMOS 2251 DEB", "group": "cosmos-2251-debris", "lat": 25.932104171301297, "lon": -59.75668075177032, "alt_km": 757.3993375756145, "timestamp": "2025-12-08T08:59:01.160354+00:00", "meta": {"OBJECT_NAME": "COSMOS 2251 DEB", "OBJECT_ID": "1993-036MT", "EPOCH": "2025-12-07T23:07:22.296000", "MEAN_MOTION": 14.36621922, "ECCENTRICITY": 0.00170758, "INCLINATION": 74.0483, "RA_OF_ASC_NODE": 293.0028, "ARG_OF_PERICENTER": 2.6364, "MEAN_ANOMALY": 60.3528, "EPHEMERIS_TYPE": 0, "CLASSIFICATION_TYPE": "U", "NORAD_CAT_ID": 34297, "ELEMENT_SET_NO": 999, "REV_AT_EPOCH": 87996, "BSTAR": 0.00023980705, "MEAN_MOTION_DOT": 6.8e-06, "MEAN_MOTION_DDOT": 0}, "tle": {"line1": "1 34297U 93036MT  25341.96345250  .00000680  00000+0  23981-3 0  9994", "line2": "2 34297  74.0483 293.0028 0017075   2.6364  60.3528 14.36621922879967"}}, "geometry": {"type": "Point", "coordinates": [-59.75668075177032, 25.932104171301297]}}, {"type": "Feature", "properties": {"norad_id": 34299, "name": "COSMOS 2251 DEB", "group": "cosmos-2251-debris", "lat": -0.4837595166670242, "lon": -15.709602362872067, "alt_km": 365.7872256014616, "timestamp": "2025-12-08T08:59:01.160364+00:00", "meta": {"OBJECT_NAME": "COSMOS 2251 DEB", "OBJECT_ID": "1993-036MV", "EPOCH": "2025-12-07T08:26:08.325600", "MEAN_MOTION": 15.64138814, "ECCENTRICITY": 0.00230884, "INCLINATION": 73.98, "RA_OF_ASC_NODE": 346.7305, "ARG_OF_PERICENTER": 58.3414, "MEAN_ANOMALY": 302.0054, "EPHEMERIS_TYPE": 0, "CLASSIFICATION_TYPE": "U", "NORAD_CAT_ID": 34299, "ELEMENT_SET_NO": 999, "REV_AT_EPOCH": 88926, "BSTAR": 0.0070281897, "MEAN_MOTION_DOT": 0.00737025, "MEAN_MOTION_DDOT": 0}, "tle": {"line1": "1 34299U 93036MV  25341.35148525  .00737025  00000+0  70282-2 0  9990", "line2": "2 34299  73.9800 346.7305 0023088  58.3414 302.0054 15.64138814889268"}}, "geometry": {"type": "Point", "coordinates": [-15.709602362872067, -0.4837595166670242]}}, {"type": "Feature", "properties": {"norad_id": 34301, "name": "COSMOS 2251 DEB", "group": "cosmos-2251-debris", "lat": -53.30836524915191, "lon": 152.73680167611886, "alt_km": 619.7604113592515, "timestamp": "2025-12-08T08:59:01.160374+00:00", "meta": {"OBJECT_NAME": "COSMOS 2251 DEB", "OBJECT_ID": "1993-036MX", "EPOCH": "2025-12-07T22:26:32.526816", "MEAN_MOTION": 14.84191793, "ECCENTRICITY": 0.00118174, "INCLINATION": 74.0058, "RA_OF_ASC_NODE": 176.2482, "ARG_OF_PERICENTER": 235.2365, "MEAN_ANOMALY": 242.3461, "EPHEMERIS_TYPE": 0, "CLASSIFICATION_TYPE": "U", "NORAD_CAT_ID": 34301, "ELEMENT_SET_NO": 999, "REV_AT_EPOCH": 88329, "BSTAR": 0.0033445074, "MEAN_MOTION_DOT": 0.00028094, "MEAN_MOTION_DDOT": 0}, "tle": {"line1": "1 34301U 93036MX  25341.93509869  .00028094  00000+0  33445-2 0  9999", "line2": "2 34301  74.0058 176.2482 0011817 235.2365 242.3461 14.84191793883290"}}, "geometry": {"type": "Point", "coordinates": [152.73680167611886, -53.30836524915191]}}, {"type": "Feature", "properties": {"norad_id": 34302, "name": "COSMOS 2251 DEB", "group": "cosmos-2251-debris", "lat": 19.26516378396388, "lon": 137.25659453751254, "alt_km": 713.0081260085935, "timestamp": "2025-12-08T08:59:01.160385+00:00", "meta": {"OBJECT_NAME": "COSMOS 2251 DEB", "OBJECT_ID": "1993-036MY", "EPOCH": "2025-12-07T20:08:40.742016", "MEAN_MOTION": 14.39302984, "ECCENTRICITY": 0.00784901, "INCLINATION": 74.1783, "RA_OF_ASC_NODE": 132.5472, "ARG_OF_PERICENTER": 349.2008, "MEAN_ANOMALY": 139.7292, "EPHEMERIS_TYPE": 0, "CLASSIFICATION_TYPE": "U", "NORAD_CAT_ID": 34302, "ELEMENT_SET_NO": 999, "REV_AT_EPOCH": 87650, "BSTAR": 0.0010689143, "MEAN_MOTION_DOT": 3.417e-05, "MEAN_MOTION_DDOT": 0}, "tle": {"line1": "1 34302U 93036MY  25341.83936044  .00003417  00000+0  10689-2 0  9995", "line2": "2 34302  74.1783 132.5472 0078490 349.2008 139.7292 14.39302984876504"}}, "geometry": {"type": "Point", "coordinates": [137.25659453751254, 19.26516378396388]}}]}